SINOD-D 3               
1 40977U 15058P   26068.81223977  .00006149  00000+0  52531-3 0  9995
2 40977  64.7724 225.9436 0118521  98.0775 263.3804 14.93212807 99915
STARLINK-5089           
1 56148U 23046BJ  26068.43704009  .00059331  00000+0  43155-2 0  9998
2 56148  43.0025 109.1420 0001595 212.4436 147.6309 15.03010147162617
